[{"OBJECT_NAME":"STARLINK-1664","OBJECT_ID":"2020-070X","EPOCH":"2026-03-09T11:15:39.464064","MEAN_MOTION":15.3852988,"ECCENTRICITY":0.00015941,"INCLINATION":53.0482,"RA_OF_ASC_NODE":133.9104,"ARG_OF_PERICENTER":307.9077,"MEAN_ANOMALY":52.1782,"EPHEMERIS_TYPE":0,"CLASSIFICATION_TYPE":"U","NORAD_CAT_ID":46553,"ELEMENT_SET_NO":999,"REV_AT_EPOCH":30008,"BSTAR":0.0021020114,"MEAN_MOTION_DOT":0.00081616,"MEAN_MOTION_DDOT":0},{"OBJECT_NAME":"COSMOS 1869","OBJECT_ID":"1987-062A","EPOCH":"2026-03-09T20:30:29.271744","MEAN_MOTION":15.35392408,"ECCENTRICITY":0.00185772,"INCLINATION":82.5127,"RA_OF_ASC_NODE":201.6716,"ARG_OF_PERICENTER":61.4986,"MEAN_ANOMALY":298.8125,"EPHEMERIS_TYPE":0,"CLASSIFICATION_TYPE":"U","NORAD_CAT_ID":18214,"ELEMENT_SET_NO":999,"REV_AT_EPOCH":8931,"BSTAR":0.00042037944,"MEAN_MOTION_DOT":0.00014573,"MEAN_MOTION_DDOT":0}]
